{
  "type": "FeatureCollection",
  "features": [
    {
      "type": "Feature",
      "properties": {
        "norad_id": 34861,
        "name": "COSMOS 2251 DEB",
        "group": "cosmos-2251-debris",
        "lat": 64.85968095453075,
        "lon": 107.02868664701698,
        "alt_km": 551.1338618752479,
        "timestamp": "2025-12-03T15:48:03.461556+00:00",
        "meta_object_name": "COSMOS 2251 DEB",
        "meta_object_id": "1993-036ACF",
        "meta_epoch": "2025-12-03T06:01:48.787104",
        "meta_mean_motion": 15.01590814,
        "meta_eccentricity": 0.00059561,
        "meta_inclination": 74.0186,
        "meta_ra_of_asc_node": 70.2195,
        "meta_arg_of_pericenter": 81.3794,
        "meta_mean_anomaly": 309.1741,
        "meta_ephemeris_type": 0,
        "meta_classification_type": "U",
        "meta_norad_cat_id": 34861,
        "meta_element_set_no": 999,
        "meta_rev_at_epoch": 87950,
        "meta_bstar": 0.0032722031,
        "meta_mean_motion_dot": 0.00042671,
        "meta_mean_motion_ddot": 0,
        "tle_line1": "1 34861U 93036ACF 25337.25125911  .00042671  00000+0  32722-2 0  9996",
        "tle_line2": "2 34861  74.0186  70.2195 0005956  81.3794 309.1741 15.01590814879509"
      },
      "geometry": {
        "type": "Point",
        "coordinates": [
          107.02868664701698,
          64.85968095453075
        ]
      }
    },
    {
      "type": "Feature",
      "properties": {
        "norad_id": 34874,
        "name": "COSMOS 2251 DEB",
        "group": "cosmos-2251-debris",
        "lat": 12.241607262327635,
        "lon": 94.00118058640919,
        "alt_km": 781.6953144697445,
        "timestamp": "2025-12-03T15:48:03.461564+00:00",
        "meta_object_name": "COSMOS 2251 DEB",
        "meta_object_id": "1993-036ACM",
        "meta_epoch": "2025-12-03T07:32:24.014112",
        "meta_mean_motion": 14.3622583,
        "meta_eccentricity": 0.00515487,
        "meta_inclination": 74.039,
        "meta_ra_of_asc_node": 91.0729,
        "meta_arg_of_pericenter": 119.3072,
        "meta_mean_anomaly": 275.1371,
        "meta_ephemeris_type": 0,
        "meta_classification_type": "U",
        "meta_norad_cat_id": 34874,
        "meta_element_set_no": 999,
        "meta_rev_at_epoch": 86909,
        "meta_bstar": 0.001488813,
        "meta_mean_motion_dot": 4.389e-05,
        "meta_mean_motion_ddot": 0,
        "tle_line1": "1 34874U 93036ACM 25337.31416683  .00004389  00000+0  14888-2 0  9993",
        "tle_line2": "2 34874  74.0390  91.0729 0051548 119.3072 275.1371 14.36225830869097"
      },
      "geometry": {
        "type": "Point",
        "coordinates": [
          94.00118058640919,
          12.241607262327635
        ]
      }
    },
    {
      "type": "Feature",
      "properties": {
        "norad_id": 34875,
        "name": "COSMOS 2251 DEB",
        "group": "cosmos-2251-debris",
        "lat": 13.253144734943271,
        "lon": 179.09268238287612,
        "alt_km": 727.0390508488863,
        "timestamp": "2025-12-03T15:48:03.461573+00:00",
        "meta_object_name": "COSMOS 2251 DEB",
        "meta_object_id": "1993-036ACN",
        "meta_epoch": "2025-12-02T23:29:38.183424",
        "meta_mean_motion": 14.48872152,
        "meta_eccentricity": 0.00159602,
        "meta_inclination": 74.0432,
        "meta_ra_of_asc_node": 176.5012,
        "meta_arg_of_pericenter": 300.7833,
        "meta_mean_anomaly": 130.3671,
        "meta_ephemeris_type": 0,
        "meta_classification_type": "U",
        "meta_norad_cat_id": 34875,
        "meta_element_set_no": 999,
        "meta_rev_at_epoch": 87614,
        "meta_bstar": 0.00050895794,
        "meta_mean_motion_dot": 1.901e-05,
        "meta_mean_motion_ddot": 0,
        "tle_line1": "1 34875U 93036ACN 25336.97891416  .00001901  00000+0  50896-3 0  9993",
        "tle_line2": "2 34875  74.0432 176.5012 0015960 300.7833 130.3671 14.48872152876145"
      },
      "geometry": {
        "type": "Point",
        "coordinates": [
          179.09268238287612,
          13.253144734943271
        ]
      }
    },
    {
      "type": "Feature",
      "properties": {
        "norad_id": 34878,
        "name": "COSMOS 2251 DEB",
        "group": "cosmos-2251-debris",
        "lat": -40.39343528320617,
        "lon": 47.56453166927907,
        "alt_km": 1082.1352037349943,
        "timestamp": "2025-12-03T15:48:03.461583+00:00",
        "meta_object_name": "COSMOS 2251 DEB",
        "meta_object_id": "1993-036ACR",
        "meta_epoch": "2025-12-01T14:17:05.154720",
        "meta_mean_motion": 13.44171436,
        "meta_eccentricity": 0.04352412,
        "meta_inclination": 73.9642,
        "meta_ra_of_asc_node": 65.0008,
        "meta_arg_of_pericenter": 50.7211,
        "meta_mean_anomaly": 11.8748,
        "meta_ephemeris_type": 0,
        "meta_classification_type": "U",
        "meta_norad_cat_id": 34878,
        "meta_element_set_no": 999,
        "meta_rev_at_epoch": 81123,
        "meta_bstar": 0.00042153975,
        "meta_mean_motion_dot": 4.13e-06,
        "meta_mean_motion_ddot": 0,
        "tle_line1": "1 34878U 93036ACR 25335.59519855  .00000413  00000+0  42154-3 0  9992",
        "tle_line2": "2 34878  73.9642  65.0008 0435241  50.7211  11.8748 13.44171436811235"
      },
      "geometry": {
        "type": "Point",
        "coordinates": [
          47.56453166927907,
          -40.39343528320617
        ]
      }
    },
    {
      "type": "Feature",
      "properties": {
        "norad_id": 34882,
        "name": "COSMOS 2251 DEB",
        "group": "cosmos-2251-debris",
        "lat": -72.13428007295795,
        "lon": 125.50690459887397,
        "alt_km": 714.8776979264549,
        "timestamp": "2025-12-03T15:48:03.461592+00:00",
        "meta_object_name": "COSMOS 2251 DEB",
        "meta_object_id": "1993-036ACV",
        "meta_epoch": "2025-12-02T04:06:20.931840",
        "meta_mean_motion": 14.61559907,
        "meta_eccentricity": 0.00823687,
        "meta_inclination": 74.0469,
        "meta_ra_of_asc_node": 245.796,
        "meta_arg_of_pericenter": 15.4065,
        "meta_mean_anomaly": 344.9579,
        "meta_ephemeris_type": 0,
        "meta_classification_type": "U",
        "meta_norad_cat_id": 34882,
        "meta_element_set_no": 999,
        "meta_rev_at_epoch": 88370,
        "meta_bstar": 0.0002608608,
        "meta_mean_motion_dot": 1.327e-05,
        "meta_mean_motion_ddot": 0,
        "tle_line1": "1 34882U 93036ACV 25336.17107560  .00001327  00000+0  26086-3 0  9999",
        "tle_line2": "2 34882  74.0469 245.7960 0082368  15.4065 344.9579 14.61559907883702"
      },
      "geometry": {
        "type": "Point",
        "coordinates": [
          125.50690459887397,
          -72.13428007295795
        ]
      }
    },
    {
      "type": "Feature",
      "properties": {
        "norad_id": 34883,
        "name": "COSMOS 2251 DEB",
        "group": "cosmos-2251-debris",
        "lat": -65.71196788630824,
        "lon": 40.77228259998779,
        "alt_km": 666.9863429132938,
        "timestamp": "2025-12-03T15:48:03.461601+00:00",
        "meta_object_name": "COSMOS 2251 DEB",
        "meta_object_id": "1993-036ACW",
        "meta_epoch": "2025-12-03T06:11:49.903008",
        "meta_mean_motion": 14.50906978,
        "meta_eccentricity": 0.00951204,
        "meta_inclination": 74.1992,
        "meta_ra_of_asc_node": 80.3835,
        "meta_arg_of_pericenter": 267.1357,
        "meta_mean_anomaly": 91.8916,
        "meta_ephemeris_type": 0,
        "meta_classification_type": "U",
        "meta_norad_cat_id": 34883,
        "meta_element_set_no": 999,
        "meta_rev_at_epoch": 86302,
        "meta_bstar": 0.0065942811,
        "meta_mean_motion_dot": 0.00027681,
        "meta_mean_motion_ddot": 0,
        "tle_line1": "1 34883U 93036ACW 25337.25821647  .00027681  00000+0  65943-2 0  9994",
        "tle_line2": "2 34883  74.1992  80.3835 0095120 267.1357  91.8916 14.50906978863027"
      },
      "geometry": {
        "type": "Point",
        "coordinates": [
          40.77228259998779,
          -65.71196788630824
        ]
      }
    },
    {
      "type": "Feature",
      "properties": {
        "norad_id": 34884,
        "name": "COSMOS 2251 DEB",
        "group": "cosmos-2251-debris",
        "lat": 42.86563742786373,
        "lon": 90.35309265444762,
        "alt_km": 596.3591172270635,
        "timestamp": "2025-12-03T15:48:03.461610+00:00",
        "meta_object_name": "COSMOS 2251 DEB",
        "meta_object_id": "1993-036ACX",
        "meta_epoch": "2025-12-03T07:47:10.508352",
        "meta_mean_motion": 14.89278291,
        "meta_eccentricity": 0.00028885,
        "meta_inclination": 74.0181,
        "meta_ra_of_asc_node": 75.5944,
        "meta_arg_of_pericenter": 139.1324,
        "meta_mean_anomaly": 276.3447,
        "meta_ephemeris_type": 0,
        "meta_classification_type": "U",
        "meta_norad_cat_id": 34884,
        "meta_element_set_no": 999,
        "meta_rev_at_epoch": 87665,
        "meta_bstar": 0.0036656629,
        "meta_mean_motion_dot": 0.00034875,
        "meta_mean_motion_ddot": 0,
        "tle_line1": "1 34884U 93036ACX 25337.32442718  .00034875  00000+0  36657-2 0  9994",
        "tle_line2": "2 34884  74.0181  75.5944 0002888 139.1324 276.3447 14.89278291876659"
      },
      "geometry": {
        "type": "Point",
        "coordinates": [
          90.35309265444762,
          42.86563742786373
        ]
      }
    }
  ]
}